STARLINK-2735
1 28667C 21044AF  21325.12586970 -.00001025  00000-0 -68676-4 0  3253
2 28667  53.0553 317.6502 0001675  66.3380 230.4123 15.06392002    17
